NORAD_CAT_ID,OBJECT_NAME,OBJECT_TYPE,EPOCH,MEAN_MOTION,ECCENTRICITY,INCLINATION,RA_OF_ASC_NODE,ARG_OF_PERICENTER,MEAN_ANOMALY,BSTAR,MEAN_MOTION_DOT,MEAN_MOTION_DDOT,TLE_LINE0,TLE_LINE1,TLE_LINE2,SEMIMAJOR_AXIS,PERIOD,APOGEE,PERIGEE,DECAYED
55420.0,STARLINK-5604,PAYLOAD,2024-06-04 11:50:24,14.98371771,0.0002785,69.9992,226.204,263.3734,96.7108,-0.00053353,-6.46e-05,0.0,0 STARLINK-5604,1 55420U 23014AF  24156.49334323 -.00006460  00000-0 -53353-3 0  9995,2 55420  69.9992 226.2040 0002785 263.3734  96.7108 14.98371771 75267,6950.064,96.104,573.864,569.993,0.0
55420.0,STARLINK-5604,PAYLOAD,2024-06-04 21:27:13,14.98337787,0.0003356,69.9988,225.1935,271.2598,88.8176,3.5477e-05,3.3e-06,0.0,0 STARLINK-5604,1 55420U 23014AF  24156.89390739  .00000330  00000-0  35477-4 0  9998,2 55420  69.9988 225.1935 0003356 271.2598  88.8176 14.98337787 76261,6950.169,96.106,574.366,569.701,0.0
55420.0,STARLINK-5604,PAYLOAD,2024-06-05 05:27:54,14.98330806,0.0003006,69.9996,224.3529,271.0001,89.0813,-1.8206e-05,-3.1e-06,0.0,0 STARLINK-5604,1 55420U 23014AF  24157.22771369 -.00000310  00000-0 -18206-4 0  9999,2 55420  69.9996 224.3529 0003006 271.0001  89.0813 14.98330806 75376,6950.19,96.107,574.145,569.966,0.0
55420.0,STARLINK-5604,PAYLOAD,2024-06-05 11:52:26,14.98330827,0.0002991,69.9996,223.68,268.2133,91.8683,-4.4402e-05,-6.23e-06,0.0,0 STARLINK-5604,1 55420U 23014AF  24157.49475397 -.00000623  00000-0 -44402-4 0  9994,2 55420  69.9996 223.6800 0002991 268.2133  91.8683 14.98330827 76354,6950.19,96.107,574.134,569.977,0.0
55420.0,STARLINK-5604,PAYLOAD,2024-06-05 21:29:14,14.98342334,0.0003089,69.9998,222.6697,268.2177,91.8628,-9.5479e-06,-2.07e-06,0.0,0 STARLINK-5604,1 55420U 23014AF  24157.89530303 -.00000207  00000-0 -95479-5 0  9996,2 55420  69.9998 222.6697 0003089 268.2177  91.8628 14.98342334 76418,6950.155,96.106,574.167,569.873,0.0
55420.0,STARLINK-5604,PAYLOAD,2024-06-06 05:29:53,14.98355314,0.0003296,69.9979,221.8259,274.3594,85.7188,0.00016713,1.903e-05,0.0,0 STARLINK-5604,1 55420U 23014AF  24158.22908786  .00001903  00000-0  16713-3 0  9992,2 55420  69.9979 221.8259 0003296 274.3594  85.7188 14.98355314 75529,6950.115,96.105,574.27,569.689,0.0
55420.0,STARLINK-5604,PAYLOAD,2024-06-06 11:54:27,14.9832819,0.0003332,69.9985,221.1521,265.932,94.1459,-0.00014793,-1.858e-05,0.0,0 STARLINK-5604,1 55420U 23014AF  24158.49615086 -.00001858  00000-0 -14793-3 0  9996,2 55420  69.9985 221.1521 0003332 265.9320  94.1459 14.98328190 75566,6950.198,96.107,574.379,569.748,0.0
55420.0,STARLINK-5604,PAYLOAD,2024-06-07 08:44:12,14.98321596,0.0003115,69.9991,218.9659,268.2082,91.872,-4.4777e-05,-6.27e-06,0.0,0 STARLINK-5604,1 55420U 23014AF  24159.36403490 -.00000627  00000-0 -44777-4 0  9996,2 55420  69.9991 218.9659 0003115 268.2082  91.8720 14.98321596 76636,6950.219,96.108,574.249,569.919,0.0
55420.0,STARLINK-5604,PAYLOAD,2024-06-07 21:33:16,14.98334098,0.0003558,69.9982,217.6183,267.5683,92.5069,-6.6824e-05,-8.9e-06,0.0,0 STARLINK-5604,1 55420U 23014AF  24159.89810678 -.00000890  00000-0 -66824-4 0  9993,2 55420  69.9982 217.6183 0003558 267.5683  92.5069 14.98334098 76718,6950.18,96.107,574.518,569.572,0.0
55420.0,STARLINK-5604,PAYLOAD,2024-06-08 05:33:56,14.9833982,0.0003274,69.9982,216.7769,268.8694,91.2089,-0.0001357,-1.712e-05,0.0,0 STARLINK-5604,1 55420U 23014AF  24160.23190505 -.00001712  00000-0 -13570-3 0  9996,2 55420  69.9982 216.7769 0003274 268.8694  91.2089 14.98339820 75826,6950.163,96.106,574.303,569.752,0.0
55420.0,STARLINK-5604,PAYLOAD,2024-06-08 11:58:28,14.98343231,0.00033,69.9984,216.1042,270.3966,89.6814,-5.5121e-05,-7.51e-06,0.0,0 STARLINK-5604,1 55420U 23014AF  24160.49893940 -.00000751  00000-0 -55121-4 0  9998,2 55420  69.9984 216.1042 0003300 270.3966  89.6814 14.98343231 76803,6950.152,96.106,574.311,569.723,0.0
55420.0,STARLINK-5604,PAYLOAD,2024-06-09 03:59:50,14.9831759,0.0003207,69.9985,214.4208,268.7211,91.3581,-5.0959e-05,-7.01e-06,0.0,0 STARLINK-5604,1 55420U 23014AF  24161.16655929 -.00000701  00000-0 -50959-4 0  9995,2 55420  69.9985 214.4208 0003207 268.7211  91.3581 14.98317590 75965,6950.231,96.108,574.325,569.867,0.0
55420.0,STARLINK-5604,PAYLOAD,2024-06-09 12:00:32,14.98299679,0.0003121,69.9986,213.5794,273.0658,87.0144,-0.00023507,-2.894e-05,0.0,0 STARLINK-5604,1 55420U 23014AF  24161.50037996 -.00002894  00000-0 -23507-3 0  9994,2 55420  69.9986 213.5794 0003121 273.0658  87.0144 14.98299679 76016,6950.287,96.109,574.321,569.982,0.0
55420.0,STARLINK-5604,PAYLOAD,2024-06-09 13:36:40,14.98299836,0.0003099,69.9986,213.4111,271.4049,88.6755,-0.00023064,-2.842e-05,0.0,0 STARLINK-5604,1 55420U 23014AF  24161.56714080 -.00002842  00000-0 -23064-3 0  9997,2 55420  69.9986 213.4111 0003099 271.4049  88.6755 14.98299836 76962,6950.286,96.109,574.305,569.997,0.0
55420.0,STARLINK-5604,PAYLOAD,2024-06-10 04:01:53,14.98311021,0.0003372,69.9981,211.8959,276.1722,83.9053,-0.00015526,-1.944e-05,0.0,0 STARLINK-5604,1 55420U 23014AF  24162.16798032 -.00001944  00000-0 -15526-3 0  9999,2 55420  69.9981 211.8959 0003372 276.1722  83.9053 14.98311021 76110,6950.252,96.108,574.46,569.773,0.0
55420.0,STARLINK-5604,PAYLOAD,2024-06-10 12:02:32,14.98323631,0.0002433,70.0018,211.0597,240.4689,119.6227,1.4071e-05,7.5e-07,0.0,0 STARLINK-5604,1 55420U 23014AF  24162.50176989  .00000075  00000-0  14071-4 0  9995,2 55420  70.0018 211.0597 0002433 240.4689 119.6227 14.98323631 76162,6950.213,96.107,573.769,570.387,0.0
55420.0,STARLINK-5604,PAYLOAD,2024-06-10 13:38:40,14.98330101,0.0002917,69.9994,210.8867,267.7066,92.3759,3.0082e-05,2.66e-06,0.0,0 STARLINK-5604,1 55420U 23014AF  24162.56852642  .00000266  00000-0  30082-4 0  9990,2 55420  69.9994 210.8867 0002917 267.7066  92.3759 14.98330101 77110,6950.193,96.107,574.085,570.03,0.0
55420.0,STARLINK-5604,PAYLOAD,2024-06-10 20:03:12,14.98329757,0.0002688,70.0003,210.2161,258.9104,101.1753,7.9437e-05,8.55e-06,0.0,0 STARLINK-5604,1 55420U 23014AF  24162.83556587  .00000855  00000-0  79437-4 0  9990,2 55420  70.0003 210.2161 0002688 258.9104 101.1753 14.98329757 77157,6950.194,96.107,573.927,570.19,0.0
55420.0,STARLINK-5604,PAYLOAD,2024-06-11 04:03:52,14.98322576,0.0002832,69.9992,209.3713,272.2265,87.857,0.00044082,5.17e-05,0.0,0 STARLINK-5604,1 55420U 23014AF  24163.16935957  .00005170  00000-0  44082-3 0  9991,2 55420  69.9992 209.3713 0002832 272.2265  87.8570 14.98322576 76261,6950.216,96.107,574.049,570.113,0.0
55420.0,STARLINK-5604,PAYLOAD,2024-06-11 13:40:40,14.9833013,0.0002954,69.999,208.3616,271.3499,88.7321,0.00045722,5.367e-05,0.0,0 STARLINK-5604,1 55420U 23014AF  24163.56991653  .00005367  00000-0  45722-3 0  9990,2 55420  69.9990 208.3616 0002954 271.3499  88.7321 14.98330130 77264,6950.192,96.107,574.111,570.004,0.0
55420.0,STARLINK-5604,PAYLOAD,2024-06-12 05:42:01,14.98337855,0.000294,69.9993,206.679,266.6796,93.4027,4.8835e-05,4.9e-06,0.0,0 STARLINK-5604,1 55420U 23014AF  24164.23752219  .00000490  00000-0  48835-4 0  9999,2 55420  69.9993 206.6790 0002940 266.6796  93.4027 14.98337855 76427,6950.169,96.106,574.077,569.99,0.0
55420.0,STARLINK-5604,PAYLOAD,2024-06-12 10:30:26,14.9833712,0.0002966,69.9994,206.1741,266.2547,93.8273,3.4897e-05,3.23e-06,0.0,0 STARLINK-5604,1 55420U 23014AF  24164.43780177  .00000323  00000-0  34897-4 0  9993,2 55420  69.9994 206.1741 0002966 266.2547  93.8273 14.98337120 77396,6950.171,96.107,574.097,569.974,0.0
55420.0,STARLINK-5604,PAYLOAD,2024-06-13 12:08:34,14.98340634,0.0002962,69.9996,203.4812,266.8857,93.1963,-0.00011151,-1.424e-05,0.0,0 STARLINK-5604,1 55420U 23014AF  24165.50595533 -.00001424  00000-0 -11151-3 0  9994,2 55420  69.9996 203.4812 0002962 266.8857  93.1963 14.98340634 76610,6950.16,96.106,574.084,569.966,0.0
55420.0,STARLINK-5604,PAYLOAD,2024-06-14 12:10:35,14.98335518,0.0003233,69.9987,200.9551,268.4761,91.6028,-1.0556e-05,-2.19e-06,0.0,0 STARLINK-5604,1 55420U 23014AF  24166.50735070 -.00000219  00000-0 -10556-4 0  9997,2 55420  69.9987 200.9551 0003233 268.4761  91.6028 14.98335518 77707,6950.176,96.107,574.288,569.794,0.0
55420.0,STARLINK-5604,PAYLOAD,2024-06-15 12:12:35,14.98337023,0.0003206,69.9988,198.4302,268.571,91.5082,4.677e-05,4.65e-06,0.0,0 STARLINK-5604,1 55420U 23014AF  24167.50874488  .00000465  00000-0  46770-4 0  9993,2 55420  69.9988 198.4302 0003206 268.5710  91.5082 14.98337023 77856,6950.171,96.107,574.264,569.808,0.0
55420.0,STARLINK-5604,PAYLOAD,2024-06-16 12:14:36,14.98328821,0.0003157,69.9988,195.9057,268.1427,91.9371,-1.9268e-05,-3.23e-06,0.0,0 STARLINK-5604,1 55420U 23014AF  24168.51015021 -.00000323  00000-0 -19268-4 0  9992,2 55420  69.9988 195.9057 0003157 268.1427  91.9371 14.98328821 78000,6950.197,96.107,574.256,569.867,0.0
55420.0,STARLINK-5604,PAYLOAD,2024-06-17 18:41:11,14.98322697,0.0003089,69.999,192.708,267.4558,92.6247,-7.8732e-05,-1.032e-05,0.0,0 STARLINK-5604,1 55420U 23014AF  24169.77859971 -.00001032  00000-0 -78732-4 0  9990,2 55420  69.9990 192.7080 0003089 267.4558  92.6247 14.98322697 78190,6950.215,96.107,574.227,569.934,0.0
55420.0,STARLINK-5604,PAYLOAD,2024-06-18 10:42:31,14.98322541,0.0003241,69.9985,191.0242,267.9534,92.1254,-5.6796e-06,-1.61e-06,0.0,0 STARLINK-5604,1 55420U 23014AF  24170.44620054 -.00000161  00000-0 -56796-5 0  9993,2 55420  69.9985 191.0242 0003241 267.9534  92.1254 14.98322541 77353,6950.216,96.107,574.334,569.828,0.0
55420.0,STARLINK-5604,PAYLOAD,2024-06-18 18:43:12,14.98322864,0.0003272,69.9986,190.1824,268.2698,91.8086,3.2569e-05,2.96e-06,0.0,0 STARLINK-5604,1 55420U 23014AF  24170.78000077  .00000296  00000-0  32569-4 0  9995,2 55420  69.9986 190.1824 0003272 268.2698  91.8086 14.98322864 78346,6950.215,96.107,574.354,569.806,0.0
55420.0,STARLINK-5604,PAYLOAD,2024-06-19 10:44:32,14.98323891,0.0003356,69.9983,188.499,268.1443,91.9331,8.5644e-05,9.29e-06,0.0,0 STARLINK-5604,1 55420U 23014AF  24171.44760171  .00000929  00000-0  85644-4 0  9992,2 55420  69.9983 188.4990 0003356 268.1443  91.9331 14.98323891 77509,6950.212,96.107,574.409,569.744,0.0
